{"type":"FeatureCollection","features":[{"type":"Feature","properties":{"name":"Parcours"},"geometry":{"type":"LineString","coordinates":[[2.1693,48.6819],[2.1057777,48.7021314],[2.1701691,48.6776178],[2.2056508,48.6833785],[2.2731882,48.650932],[2.3208757,48.6384975],[2.3374262,48.6689085],[2.3380279,48.6930129],[2.371709,48.7093114],[2.3936552,48.6696255],[2.4314511,48.6836269],[2.4176052,48.6997563],[2.4396017,48.7147315],[2.435142,48.7285243],[2.4965047,48.7075492],[2.5284561,48.7280311],[2.5976133,48.7018935],[2.5343961,48.6836055],[2.5636614,48.6490998],[2.5633428,48.6230276],[2.5967165999999997,48.5859968],[2.5467334,48.6155482],[2.4924071,48.6305435],[2.4555949,48.6141748],[2.4473011,48.5860649],[2.4436348999999997,48.5953063],[2.4246884,48.6150946],[2.4277588999999997,48.630406],[2.3711432,48.6232405],[2.3422562,48.6208734],[2.302358,48.5876455],[2.2305041,48.5676759],[2.3512104,48.4993425],[2.4445976,48.566168],[2.5211335,48.5379441],[2.583226,48.50125],[2.6527748,48.5226725],[2.6371659999999997,48.557026199999996],[2.671732,48.5547785],[2.8023691,48.4964484],[3.0042979,48.5561356],[3.2952632,48.5514721],[3.2948866,48.781917799999995],[3.7320557999999995,48.7110257],[3.7609935,48.5022572],[4.1019064,48.3294321],[4.1077898,48.3270327],[4.1337865,48.2966767],[4.0856467,48.2743839],[4.0732593999999995,48.299922099999996],[4.0429536,48.2791032],[3.3042431,48.1936783],[3.2901994,48.1748547],[3.2766152,48.2054382],[3.0653109,48.333693],[2.9565364,48.37601240000001],[2.8432366,48.3676313],[2.7394897,48.4236222],[2.6844866,48.2770345],[2.2490814,48.1876599],[2.0007589,48.3184103],[2.1710167,48.4336079],[2.0212964,48.521567],[1.8304223,48.5326752],[1.5179726999999998,48.4485077],[1.5136233,48.4281448],[1.4842954,48.444522199999994],[1.4383764,48.4462825],[1.4636813,48.4135461],[1.3343003,48.08929],[1.8657602,48.0830854],[1.9220959,47.9448782],[1.8929077,47.9463145],[1.8659373,47.9056095],[1.8634591,47.8815983],[1.9078821,47.8796213],[1.9176633,47.8454405],[2.0304688,47.9042434],[2.3801358,47.7939345],[2.640508,47.708207],[2.7346322,47.9783205],[2.7384013,48.0123448],[3.380101,47.9786939],[3.56324,47.8141805],[3.6706110999999995,47.7883329],[3.9888799,47.852564],[3.9078621,47.4995641],[4.5665529,47.2510588],[4.3170321,46.9561973],[4.428516,46.8088827],[4.3620856,46.6817827],[4.0048018,46.4746027],[4.0840126,46.4623306],[4.3122813,46.208038],[4.055317,46.066445],[4.0556755,46.0455521],[4.0709306,46.035633399999995],[4.2869847,46.0355652],[4.445038,45.890325],[4.6072754,45.8232192],[4.703122200000001,45.8561482],[4.7675646,45.8194594],[4.7852369,45.8023259],[4.7759828,45.7896678],[4.7684087,45.764326399999995],[4.7704078,45.7522818],[4.7419025,45.7471603],[4.7755293,45.7340735],[4.8053445,45.7543437],[4.8170088,45.741438],[4.8379807,45.7264102],[4.828965,45.6935246],[4.7934909,45.6804451],[4.8245486,45.6384398],[4.7525628,45.5841336],[4.8099185,45.5741552],[4.8729996,45.5342734],[4.9261315,45.64972],[4.9468456,45.684972099999996],[5.0132501,45.6978814],[4.9870334,45.7286451],[5.0294421,45.7601294],[4.991627,45.8213555],[4.9771343,45.7722505],[4.9807749999999995,45.767377],[4.9133731,45.7627237],[4.9324742,45.74787],[4.9353809,45.723799],[4.9205337,45.7219508],[4.8800317,45.7125741],[4.8781251999999995,45.7430202],[4.8612548,45.7486989],[4.8797568,45.7669482],[4.8633017,45.7700648],[4.8572963,45.7617728],[4.8429762,45.7550226],[4.828852599999999,45.7529088],[4.8342288,45.7581985],[4.8344881,45.7643036],[4.8361291,45.7656759],[4.8116321,45.7870025],[4.8508524,45.7979943],[4.8896671,45.8172478],[4.8223049,45.8950397],[4.7355849,45.9793633],[4.7346997,45.9983581],[4.7517211,46.105889],[4.7895173,46.2527425],[4.810713799999999,46.2876191],[4.8425733,46.332019],[5.1246555,46.349487],[5.2141267,46.21538],[5.2359789999999995,46.207088999999996],[5.2462200999999995,46.1858177],[4.9673599,46.1297053],[5.0339571,46.0069663],[5.3491867,45.9775485],[5.1962359,45.9008373],[5.1863164,45.7497025],[5.132788,45.643305],[5.2115623,45.6121523],[5.225012899999999,45.615479799999996],[5.2567282,45.5897085],[5.4285521,45.5678336],[5.4517219,45.6834209],[5.7063463,45.757749],[5.896565,45.6939121],[5.90919,45.65965],[5.9520681,45.5729501],[5.9013766,45.5911434],[5.8976031,45.5925275],[5.6879596,45.5293068],[5.5779272,45.537407],[5.3346887,45.3544532],[5.474677,45.3858332],[5.5788777,45.3834832],[5.5919763,45.3591407],[5.6293466,45.2960266],[5.6751706,45.1966931],[5.7148154,45.1908527],[5.7261513,45.190296499999995],[5.717742299999999,45.1830997],[5.6947283,45.1492172],[5.717508,45.1506784],[5.7332282,45.1569652],[5.7527227,45.1691772],[5.7664412,45.1852394],[5.7635116,45.2037013],[5.8866059,45.2746131],[6.0071817,45.4346667],[6.0387998,45.5034514],[6.3634251,45.6558809],[6.3899011,45.6645409],[6.1420339,45.8585499],[6.089074,45.876697],[6.1241547,45.925462499999995],[6.0824812,45.9329946],[5.9432215,45.859239],[5.8110053,46.1276208],[5.6430093,46.253875],[5.8294762,46.3811173],[6.0954554,46.122132],[6.408565599999999,46.073261599999995],[6.5552162,46.0671655],[6.6294602,45.9528721],[6.6255823,45.8639467],[6.8712723,45.9232665],[6.777819,45.623554999999996],[6.3644952,45.2701965],[5.7830475,44.9335567],[5.3047936,45.143953],[5.0779257,45.0506645],[5.0558043,45.0379696],[4.9735894,45.1182181],[4.8132777,45.1731197],[4.8367268,45.0536365],[4.8768269,45.0203838],[4.874482599999999,45.0174843],[4.8821982,44.9607731],[4.9403315,44.9595482],[4.8909851,44.9295701],[4.864732600000001,44.939729199999995],[4.8621915,44.9190659],[4.8368831,44.7595447],[5.0050132,44.7364424],[5.0080743,44.3864586],[5.096604,44.2557454],[5.069426,44.059213799999995],[5.0402787,44.0502669],[5.064208000000001,43.932128999999996],[5.3665287,43.8872187],[5.5013606,43.6822107],[5.7950051,43.8199231],[5.9658939,44.1423985],[5.9054497,44.2335346],[6.1036341,44.5682329],[6.1865857,44.0772708],[7.2000903,43.7660251],[7.1885205,43.7283026],[7.289575800000001,43.7312939],[7.4874005,43.79868080000001],[7.621207399999999,43.7883369],[7.5054068,43.7750224],[7.4175389,43.7307716],[7.2849523,43.7104007],[7.284855599999999,43.705709299999995],[7.2650725000000005,43.704800899999995],[7.2684468,43.7002585],[7.265939599999999,43.6951318],[7.1941708,43.6596908],[7.1299693,43.6636291],[7.131240099999999,43.662391299999996],[7.1336419,43.6331912],[7.087276999999999,43.6034459],[7.086444999999999,43.599931999999995],[7.090198999999999,43.574338],[7.0568878,43.5768578],[7.014960899999999,43.552017199999995],[6.932574,43.5338326],[6.9561341,43.551642699999995],[6.973512,43.6161734],[6.9449341,43.6530201],[6.9407181,43.6455274],[6.7544312,43.6049704],[6.4709163,43.529131299999996],[6.4824333,43.504611],[6.4883455,43.4504277],[6.7017688,43.4442636],[6.736235499999999,43.4282287],[6.766366,43.423016000000004],[6.8042736999999995,43.4311633],[6.6311992,43.3171248],[6.5766662,43.2617777],[6.130075,43.106651899999996],[6.128819300000001,43.119271000000005],[6.046091,43.1992715],[6.0343789,43.1389682],[6.0224835,43.1382802],[6.033203,43.1086141],[6.0036634,43.1366595],[5.9480448,43.120613],[5.9357293,43.1196422],[5.932343899999999,43.1251744],[5.8806781,43.1229005],[5.8579983,43.108702],[5.8167591,43.1047761],[5.6957488,43.1810676],[5.6037575,43.1891863],[6.0492871,43.4084152],[5.8495836,43.4554119],[5.608832,43.4642085],[5.6001384,43.3881375],[5.5948477,43.2980265],[5.5492281000000006,43.285215799999996],[5.4815991,43.2945321],[5.4426038,43.2954297],[5.4115861999999995,43.3043147],[5.4012763999999995,43.3031728],[5.4000153,43.2954989],[5.3984491000000006,43.2955725],[5.4006096999999995,43.272185300000004],[5.3896579,43.2493574],[5.3851331,43.2824793],[5.3834846999999995,43.286915300000004],[5.3796877,43.2917541],[5.3786602,43.2931661],[5.3726496,43.293502],[5.3746735,43.2940657],[5.3807576,43.2976381],[5.3806563999999995,43.299441099999996],[5.3678916,43.3044684],[5.3881884,43.3310793],[5.3417077,43.350967399999995],[5.350232,43.363783999999995],[5.3602203,43.4132498],[5.361110699999999,43.420943],[5.365201,43.419858],[5.4650687,43.4656141],[5.433847399999999,43.5179952],[5.3974443,43.505755],[5.37756,43.487303],[5.3084109,43.6178732],[5.2275264,43.5505801],[5.2227985,43.4847535],[5.263954300000001,43.430842299999995],[5.2295329,43.4179945],[5.1311737,43.3940206],[5.0545039,43.421696],[5.0010099,43.4130146],[4.9458239,43.43181020000001],[4.9799429,43.4982356],[4.9642485,43.5192961],[5.0000079,43.5876809],[5.1006678999999995,43.6320165],[5.112521,43.6287833],[5.0902705,43.740815],[5.0351109,43.8274488],[5.0270101,43.854345],[4.852672999999999,43.888253999999996],[4.859005499999999,43.9222786],[4.8364717,43.939706],[4.8585053,43.95102790000001],[4.8894981,43.9803052],[4.8789275,43.978973499999995],[4.8604341,43.9830502],[4.805883,43.9469611],[4.7835167,43.9307877],[4.7481451,43.9589906],[4.7102642,44.0586182],[4.829113899999999,44.1222953],[4.7992273,44.135999999999996],[4.6192077,44.1775852],[4.7514658,44.289551599999996],[4.6931551,44.3679856],[4.7453008,44.531631999999995],[4.7566469,44.5677233],[4.6114309,44.7158479],[4.4041391,44.6161089],[3.4781001,44.514689],[4.098108,44.1491925],[4.0798117000000005,44.1271324],[4.099182,44.108694],[4.4279957,43.9891935],[4.5757436,43.9396663],[4.6151668,43.8168181],[4.6946842,43.7952526],[4.8019835,43.6286369],[4.6361637,43.6666573],[4.641949,43.705878999999996],[4.4038077,43.8568156],[4.364243,43.822078],[4.3648958,43.811692099999995],[4.348185,43.815567099999996],[4.3105044999999995,43.8129604],[4.2995063,43.7837478],[4.2050087,43.6923352],[4.1329839999999995,43.712827],[4.1513439,43.6826452],[4.1492932,43.5167828],[3.9996542,43.655069],[3.9770433999999995,43.651467499999995],[3.9426744,43.641430299999996],[3.9334115,43.6597579],[3.9022334,43.66004],[3.9209171000000005,43.604652699999995],[3.9161089000000002,43.602447],[3.9263328,43.5835798],[3.8892772,43.58576190000001],[3.8386166,43.5694975],[3.8560867,43.589221699999996],[3.8805841,43.6053669],[3.8793333,43.608726100000005],[3.8383512,43.6256604],[3.8001262,43.613867],[3.7735540999999997,43.5830138],[3.7671283,43.4646636],[3.6928691,43.4609065],[3.7077066999999997,43.409767099999996],[3.485271,43.30381],[3.476882,43.297927],[3.2834136,43.2695769],[3.1684577,43.3091443],[3.2505617,43.3481761],[3.225021,43.3648932],[3.3196947,43.5006953],[3.4191142,43.4528345],[3.543486,43.6507254],[3.4370404999999997,43.6228313],[3.1291494,43.594956],[3.0824814,44.0909303],[2.5583853,44.3139622],[2.5705554,44.3605392],[2.5924659,44.3725343],[2.7438002,44.5315556],[2.2560633,44.5598621],[2.0155756,44.6085387],[2.011802,44.3601775],[1.5255869,44.1503616],[1.3794865,44.0373818],[1.3560651,44.0020466],[1.3348324,43.9883933],[1.2477647,43.9634471],[1.1000494,44.05729],[0.8819849,44.111502099999996],[0.6349365,44.1760572],[0.6136469999999999,44.189797],[0.5789833,44.1866942],[0.6266514999999999,44.2054846],[0.6425737,44.2453362],[0.683119,44.4041582],[0.7433177999999999,44.408035399999996],[0.9746899,44.4853455],[1.427616,44.4668924],[1.2106553,44.9025571],[1.3253363,45.1287671],[1.4818015,45.1466401],[1.5609645,45.1689958],[1.4141435,45.2551929],[1.2074083,45.5182561],[0.7655351,45.1895715],[0.660345,45.194694],[0.7011548,45.1383032],[0.5333614,44.8499226],[0.44892,44.8350118],[0.1789186,44.8448155],[-0.3349549,44.772227],[-0.3676587,44.657],[-0.2545925,44.5426669],[-0.0693818,44.5835989],[0.1412764,44.5094897],[0.2966399,44.3995954],[0.0794309,44.3139008],[0.3285927,44.1454096],[0.5913466,43.664732699999995],[0.5942073,43.6504705],[1.0731146,43.6035854],[1.2099526,43.5281455],[1.3109048,43.5707775],[1.3051935,43.607206],[1.3307891,43.6134498],[1.3599121,43.5894119],[1.392386,43.567507],[1.4189015999999999,43.5948121],[1.3953579999999999,43.608309399999996],[1.3762146,43.6375569],[1.3665323,43.6488106],[1.3062274,43.6607519],[1.4049087,43.6868119],[1.3669873,43.7462009],[1.3918928,43.8311516],[1.591944,43.802575999999995],[1.7993659,43.7040651],[1.9631333,43.7596272],[1.8796679,43.8923008],[2.1174334999999997,43.9189842],[2.155166,43.954665],[2.1783549,43.9361381],[2.2179406,43.5924262],[2.2671699999999997,43.591018999999996],[2.3864222,43.4986119],[1.9831493999999998,43.451727399999996],[1.9556024,43.3000319],[2.0984176999999997,43.2412795],[2.2202309,43.0745903],[2.311301,43.2065116],[2.3846265,43.207278599999995],[2.5408749999999998,43.1783113],[2.75073,43.1875419],[2.9345134,43.183318],[2.992479,43.175032],[3.0280847,43.1815873],[2.9659276,43.030531],[3.0382694999999997,42.8413238],[3.0147652,42.7743276],[2.9151332,42.776907],[2.8910917,42.742805999999995],[2.8879339,42.7171853],[2.8464835,42.6938135],[2.8841539000000003,42.6699951],[2.8900894000000004,42.672295000000005],[2.9073729999999998,42.687051499999995],[2.9350577,42.6996558],[3.0226137,42.6992167],[2.9971327,42.607827],[3.0067711,42.5586672],[2.8412901,42.5344672],[2.7628267,42.6403271],[2.6348285000000002,42.676407499999996],[2.4280963,42.6248754],[1.8641021,42.9633614],[1.599891,42.8456402],[1.6236455,42.949109],[1.6405359,43.0742444],[1.6295031,43.1035435],[1.5656146,43.2517508],[1.4591978,43.3623719],[1.7039693,43.3990947],[1.5919413,43.4510431],[1.4967295,43.5199935],[1.5021502,43.5502483],[1.5147931,43.5648439],[1.4939475,43.5732229],[1.5082745,43.5911746],[1.4830761,43.6062877],[1.5125311,43.6679185],[1.4717761999999999,43.6459495],[1.43191,43.661478],[1.4330651,43.6268621],[1.4354149,43.6108789],[1.436279,43.6031841],[1.4435259999999999,43.605029599999995],[1.4533348,43.6118111],[1.4483886,43.6052543],[1.4446331,43.600663],[1.4442545999999998,43.5924912],[1.4558393,43.5699097],[1.4681064,43.5542038],[1.4198463000000001,43.549558999999995],[1.4005822,43.5354303],[1.3512418,43.5294121],[1.3704832,43.5113352],[1.3298478,43.4731539],[1.0756642,43.2364429],[1.1264798,43.0057492],[0.7598575,43.113562],[0.5930302,43.0607335],[0.3864841,43.1035807],[0.0424387,43.4426613],[0.0183946,43.2413133],[0.0597811,43.2214341],[0.06083330000000001,43.2214994],[-0.035019299999999996,43.11258],[-0.2393086,43.1870014],[-0.3602079,43.2793109],[-0.3319779,43.3068577],[-0.3589545,43.3156603],[-0.37965699999999997,43.324326],[-0.3860931,43.3616074],[-0.4237134,43.3176538],[-0.6258392,43.3722001],[-0.7796272,43.4877967],[-0.6130487,43.6380077],[-0.46537219999999996,43.8774747],[-0.4797849,43.90289],[-1.0506856,43.723503099999995],[-1.0452374,43.7101517],[-1.1327815,43.5537339],[-1.4446341,43.4810046],[-1.4456835,43.4814004],[-1.4527405999999998,43.4924167],[-1.5033471999999999,43.4826452],[-1.5193024000000002,43.4946534],[-1.5227464,43.5269002],[-1.4633535,43.5273843],[-1.282627,43.6688444],[-1.1385089,43.870627],[-1.2197309,44.2061644],[-1.1672994,44.4112347],[-1.1362016,44.6165996],[-1.1575039999999999,44.645798000000006],[-0.9582739,44.6363682],[-0.7527515,44.8112425],[-0.6721903,44.8423647],[-0.6527941,44.8302005],[-0.6365445,44.7862757],[-0.5957326,44.800354999999996],[-0.5709906,44.7779095],[-0.5293638,44.7234175],[-0.5354247,44.7915384],[-0.5299506,44.7934642],[-0.5196654,44.8213782],[-0.5564635,44.825782],[-0.5724796,44.8138589],[-0.5724249,44.8312676],[-0.5752091,44.8398987],[-0.5574229,44.8419938],[-0.5142644,44.865969],[-0.5609181,44.8888702],[-0.5650559,44.870013],[-0.5938061,44.853802],[-0.6536107999999999,44.856443899999995],[-0.692363,44.884386],[-0.6648759,44.8922499],[-0.6242872,44.9114279],[-0.6294206,44.9560281],[-0.6417396,45.129372],[-0.3798678,45.1110033],[-0.4372772,45.0057499],[-0.4859596,44.9129813],[-0.4897231,44.907852],[-0.4286525,44.8744383],[-0.21808139999999998,44.901286899999995],[-0.24090509999999996,44.928349399999995],[-0.1121895,45.0521576],[0.1430928,45.0069165],[0.3462254,45.2539135],[0.1104925,45.624403199999996],[0.2120541,45.6331814],[0.1810567,45.6936737],[0.3833053,45.7525266],[0.1920846,46.0221255],[-0.3023201,45.8704786],[-0.529403,45.954907999999996],[-0.6629106,45.7400396],[-0.6017026999999999,45.7463364],[-0.3209248,45.6907183],[-0.1398426,45.4620482],[-0.45142639999999995,45.439078599999995],[-0.5633311999999999,45.573848000000005],[-0.9399457,45.3107804],[-1.0025288,45.6234512],[-1.1187222,45.830024],[-1.2610827999999998,45.905713299999995],[-0.9610647,45.922122099999996],[-0.9778931999999999,45.958781599999995],[-1.1028981,46.1116775],[-1.153104,46.1482435],[-1.170276,46.1751025],[-1.1029559,46.1776376],[-1.0141556,46.2593287],[-0.8756336,46.2278194],[-0.7395417999999999,46.110558499999996],[-0.478658,46.312497099999995],[-0.4143241,46.338312],[-0.22236029999999998,46.407922299999996],[-0.2233836,46.6495307],[0.2996374,46.5475339],[0.397126,46.555858],[0.3714935,46.5726661],[0.3627454,46.6463361],[0.5280557,46.796796199999996],[0.5465890999999999,46.8391933],[0.6193265,46.5678483],[0.9212416,45.8969184],[1.1175543,45.7996572],[1.2578026,45.8110887],[1.3058665,45.7811461],[1.2732231999999999,45.832771699999995],[1.2449725999999999,45.8484824],[1.2901563999999999,45.880544],[1.2812698,45.8943568],[1.5062482,46.229568],[1.8848771,46.1680849],[2.0027873,46.5818436],[2.4921478,46.7337218],[2.5842234,46.3780748],[2.6023406,46.3460389],[3.2005425,46.0800071],[3.074047,45.8897972],[3.1557144,45.8197945],[3.1387822,45.788742],[3.1272431999999997,45.7642021],[3.1322688,45.7508117],[3.0900927000000005,45.7448875],[3.0820154,45.778053899999996],[2.3002894,45.5363591],[1.7613271,45.2538991],[1.8438835,44.9115533],[2.4025543,44.8949877],[2.4417872,44.9134895],[3.0635607,45.0381615],[3.3726771,45.3145293],[3.2669972,45.5513958],[3.1942178,45.6843773],[3.1731934,45.7399529],[3.1869336,45.7764203],[3.2861536,45.7857221],[3.7378267,45.5447836],[3.8808116,45.0272037],[3.9136479,45.0491345],[4.1122404,45.1462268],[4.6892211,45.2548115],[4.8051567,45.3406925],[4.7409134,45.4278345],[4.5950612,45.519873],[4.4940476,45.4627936],[4.4419077,45.4819436],[4.4209554,45.445728],[4.4000009,45.443129],[4.3922554,45.423087599999995],[4.374527,45.409137],[4.2742531,45.3782855],[4.339032899999999,45.4403864],[4.3725597,45.4674465],[4.2929212,45.5228004],[4.2266106,45.7197545],[4.0825616,45.5941008],[3.5076131,45.8402433],[3.4029552,46.1252194],[3.4156651,46.142562],[3.6147345,46.245834599999995],[3.2969434,46.298501],[3.3431415,46.5404942],[3.3168168,46.5871898],[3.4658505,46.8370547],[3.1649973,46.9882318],[3.106519,46.99875],[3.148083,47.0196847],[3.0824499999999997,47.093689999999995],[2.9231966,47.390578],[2.4215346,47.0926774],[2.3775519,47.112143],[2.0065161,46.9526891],[1.6977263,46.8050204],[1.6566895,46.7859651],[1.7034246,46.8520668],[2.0913743,47.2392346],[1.7369406,47.3783285],[1.3772753,47.27878],[1.4405816,47.429089999999995],[1.370322,47.5713095],[1.3284232,47.605511],[1.0176158,47.4035954],[0.9827595999999998,47.1306023],[0.6089746,47.1012435],[0.7058068,47.3314677],[0.6629558999999999,47.3234047],[0.6450606,47.345712999999996],[0.6760538,47.3652941],[0.6807095,47.3931233],[0.6924646,47.3894768],[0.7251763,47.3804672],[0.7869334,47.3940963],[0.7027165,47.4259825],[0.6584375,47.4269638],[0.4324031,47.6873868],[-0.0530089,47.7032845],[-0.2988839,47.8380743],[-0.740214,48.0541676],[-0.7986519999999999,48.077624],[-0.686271,47.8316863],[-0.8701662,47.696387],[-0.6064123,47.517499099999995],[-0.6260887,47.4844844],[-0.5558626999999999,47.4504717],[-0.5487088,47.4699864],[-0.5439075,47.489293599999996],[-0.4900847,47.5001823],[-0.5100207,47.4563789],[-0.5296024,47.3961699],[-0.2241104,47.436554],[-0.29046,47.1898104],[-0.0921258,47.2651628],[0.1665184,47.2739734],[0.261912,47.1791152],[0.0705776,47.000844],[-0.19535349999999999,46.9907553],[-0.4696678,46.8497915],[-1.0253674,46.874741],[-1.0490353,46.6820895],[-0.7530452999999999,46.6483547],[-0.8057733,46.4527293],[-1.1350392,46.46162],[-1.436237,46.646718],[-1.4307356,46.6985165],[-1.5901362,46.7329945],[-1.7478262,46.4881453],[-1.7479034999999998,46.4879317],[-1.7693416,46.5142724],[-1.9142835,46.6933315],[-1.8959404,46.8542952],[-2.0721793,47.1122462],[-2.1553557,47.2378984],[-1.9357844,47.374241],[-1.7432552,47.2937393],[-1.6438731,47.3815928],[-1.551025,47.285078],[-1.4540766,47.2835478],[-1.5099376000000002,47.256996099999995],[-1.5818485,47.2610017],[-1.6197875000000002,47.2505917],[-1.6197875000000002,47.2505917],[-1.6278909,47.2257521],[-1.6279141,47.2257373],[-1.6165136999999998,47.2106791],[-1.5582898,47.2138254],[-1.552193,47.2143215],[-1.4702703,47.1877423],[-1.5428724,47.1605292],[-1.5885036,47.1880201],[-1.6164178999999999,47.1979646],[-1.6826982,47.1626401],[-1.6390825,47.0466452],[-1.3312033,46.971166],[-1.282004,47.097429600000005],[-1.2744463,47.1573306],[-1.0056508,47.094062],[-0.8962875000000001,47.045713799999994],[-0.8423780999999999,47.0735463],[-0.7237733,47.2355481],[-0.9838481,47.211057],[-1.1952661,47.372512],[-1.4789272999999998,47.4415735],[-1.404536,47.701173],[-1.6909703,47.8533485],[-2.0683676,47.6697722],[-2.0836044,47.4325204],[-2.2095443,47.2932422],[-2.2645115,47.2592644],[-2.3980167,47.2937005],[-2.4151455,47.327894199999996],[-2.5043408,47.5599086],[-2.4533183999999997,47.6703063],[-2.3872741,47.9207585],[-2.129625,47.928523999999996],[-1.880203,48.0592121],[-1.7396889,48.0556791],[-1.6764968999999998,48.08359],[-1.6725119,48.1034443],[-1.6802823,48.104484299999996],[-1.7133743,48.1043127],[-1.7086928,48.1160002],[-1.6901879,48.1319939],[-1.6408954999999998,48.1298068],[-1.6202307999999999,48.1135611],[-1.5897618999999998,48.1109185],[-1.6212732,48.0629679],[-1.5371475,47.9718029],[-1.4662592,48.103131],[-1.2095478,48.120294],[-1.1806975,48.345542],[-1.2335617,48.352145],[-1.5001678,48.2237545],[-1.7309474,48.2024789],[-1.7678304,48.1399194],[-1.9192695,48.175676],[-2.1682302,48.1900459],[-2.7326147,48.1808302],[-2.9603383,48.0539885],[-2.8369135,47.8990425],[-2.7245527,47.6512603],[-3.007668,47.6637886],[-3.2593531,47.8004821],[-3.34233,47.7776384],[-3.3644668,47.7477798],[-3.3950844,47.7632747],[-3.5893369,47.8687475],[-3.915262,47.8901065],[-4.0953957999999995,47.97873020000001],[-4.0866318,48.016686899999996],[-4.347726,48.088817],[-4.0519115,48.216455],[-4.264057,48.450024199999994],[-4.4068084,48.39925],[-4.437120999999999,48.4169781],[-4.4684652,48.4184266],[-4.482125400000001,48.3928757],[-4.5278428,48.3876067],[-4.5741749,48.4275006],[-4.3124476,48.561792],[-4.0525347,48.5150546],[-3.8163496,48.5881937],[-3.5527707,48.2773219],[-3.1665058,48.563058],[-3.4611035,48.7460832],[-3.0393568,48.770876],[-2.7568047,48.5338265],[-2.7244793,48.4944804],[-2.4982556,48.4546],[-2.0735565,48.447842],[-2.0588938,48.6146864],[-1.9901652,48.634682],[-1.9746749,48.6040115],[-1.7495502,48.4178649],[-1.489201,48.5597543],[-1.3669527,48.6904635],[-1.4311829,49.0690116],[-1.6859914,49.6611025],[-1.6166157,49.6338865],[-1.5967886,49.6005948],[-1.09885,49.3113275],[-1.0824506,49.099924],[-0.7012716,49.2844634],[-0.4526068,49.3209734],[-0.4570996,49.1974591],[-0.4238993,49.1639995],[-0.6502177,49.0732386],[-0.5814907,48.7271277],[-0.3710647,48.5753778],[0.0600232,48.433696],[0.0883514,48.4056557],[0.1703095,48.05077],[0.1755156,48.0367315],[0.16032749999999998,48.0144695],[0.1590336,47.97488],[0.2334072,47.9402152],[0.2152874,47.9755545],[0.1958817,48.0037127],[0.2283624,48.0220784],[0.6525124,48.1809507],[0.8009324,48.3278615],[1.0249004,48.4775479],[0.920212,48.7327144],[0.6340899,48.761823899999996],[0.5206992,48.5348165],[-0.0279598,48.7487587],[-0.2075702,48.9130968],[-0.1770506,49.1179788],[-0.2967346,49.163616],[-0.3386778,49.1466625],[-0.3304746,49.1792817],[-0.3618675,49.18312050000001],[-0.3621648,49.210036],[-0.32727130000000004,49.206362899999995],[-0.2611636,49.2682514],[-0.1032588,49.2759755],[0.0964491,49.346891],[0.1303049,49.4930155],[0.1115549,49.4969045],[0.1066341,49.525824199999995],[0.1879925,49.5290095],[0.3760361,49.7593514],[0.4909034,49.5511307],[0.8169635,49.3615893],[0.5214296,49.3493025],[0.26314,49.1439343],[0.604246,49.089035499999994],[0.9058325,49.142691199999994],[0.952215,48.9536501],[1.1443638,49.0282772],[1.168859,49.0113138],[1.3463219,48.7468762],[1.361067,48.7345084],[1.4589929,48.8631639],[1.5929837,49.037666],[1.4637262,49.096936],[1.3465679,49.1570164],[1.1842963,49.2491043],[1.035799,49.289506],[1.1004507,49.3292091],[1.1108882,49.380143999999994],[1.151787,49.405921],[1.0594766,49.3932535],[1.0452502000000001,49.4147016],[1.0864374,49.4312505],[1.0900882,49.4419442],[1.0728869,49.4450424],[1.0434895,49.4586895],[1.1011738,49.4782666],[0.9631069,49.5360362],[0.774623,49.6128111],[1.0792291999999999,49.9114538],[1.1113157999999999,49.92229760000001],[1.4068742,50.0608584],[1.5353384,50.0740733],[1.6432982,49.9276517],[1.4330495,49.733042],[1.9408703,49.6599477],[2.2798475,49.640242],[2.2770384999999997,49.862507199999996],[2.3006555,49.8919235],[2.2876281000000005,49.9008398],[2.318672,49.9073409],[2.3770968,49.8673263],[2.6692338,50.0092035],[2.8683445,50.1056719],[2.9306312,49.9418425],[2.8372587,49.886853599999995],[2.7737235,49.7080338],[2.589591,49.6465645],[2.431173,49.5113484],[2.4019003,49.382991],[2.330211,49.3186678],[2.1137905,49.407595099999995],[2.0741430999999997,49.429404899999994],[2.089504,49.4338317],[2.0976991,49.4523894],[1.7397403,49.4778349],[1.7907035,49.284548],[1.8006373,49.1465429],[1.6804641,48.9896718],[1.696472,48.9799652],[1.7494213,48.9896886],[1.8672452,48.9679258],[1.9082673,48.9973067],[2.0243624,49.0548545],[2.0722229,49.0418735],[2.0836255,49.0380695],[2.0815412,49.0727484],[2.1241171,49.0571203],[2.120811,49.0358352],[2.14158,49.0230724],[2.0949381,49.0183902],[2.0739005,48.9885734],[2.0571311,48.9599353],[2.0295068,48.9431199],[2.0433863,48.9289618],[2.0333118999999997,48.909484299999995],[1.9945773,48.924777],[1.9757791,48.8281525],[1.9634176,48.8265026],[1.7816015,48.8035377],[1.9185846,48.7601906],[1.9240914,48.748665],[1.9853952,48.7855059],[2.034783,48.798687],[2.042662,48.782356],[2.061305,48.769740999999996],[2.1283445,48.8007346],[2.1175288,48.826489099999996],[2.1189722,48.826655699999996],[2.2063039,48.8221409],[2.2513213,48.820469599999996],[2.2430339999999998,48.8341141],[2.2578266,48.838281699999996],[2.2764789999999997,48.8315963],[2.2787781,48.826836899999996],[2.2988879,48.8242815],[2.328153,48.8105904],[2.3207523,48.792333],[2.2950845,48.8080121],[2.2556324,48.7867117],[2.2253891,48.7739505],[2.207741,48.779044],[2.2409372999999997,48.7297826],[2.2536551,48.703643],[2.2763104,48.7236226],[2.2991287,48.7158611],[2.3012093,48.7540847],[2.3468213,48.7560034],[2.3679477,48.762856],[2.3725462,48.756108],[2.410544,48.745081],[2.4429063,48.7615668],[2.484798,48.7674059],[2.4563892,48.779379],[2.4592854,48.78467],[2.435999,48.785199299999995],[2.4125295,48.795493],[2.3999204,48.7739175],[2.3698999,48.7919927],[2.3620628999999997,48.8118774],[2.3639393,48.8206897],[2.3795777,48.8279767],[2.366756,48.826850199999996],[2.3570144,48.8259948],[2.3552522,48.828851],[2.3567087,48.8307766],[2.3506198,48.8366388],[2.3637242,48.8431114],[2.3756397,48.8446856],[2.3761932,48.8510534],[2.3699884,48.8539434],[2.3802834,48.8574812],[2.3866836,48.8471787],[2.4059792,48.835444300000006],[2.4142863,48.8207745],[2.4713377,48.8099198],[2.4758307,48.8203575],[2.4874913999999997,48.8377432],[2.4859548,48.8543789],[2.4425551999999997,48.8611966],[2.4370965,48.8472904],[2.4108063,48.847525399999995],[2.4104066,48.8532371],[2.4103453,48.8533426],[2.4159056,48.8553783],[2.416314,48.865277],[2.4162772,48.8652616],[2.408338,48.864686999999996],[2.408338,48.864686999999996],[2.397882,48.864803599999995],[2.4063195,48.877231699999996],[2.4163929,48.8799658],[2.4163929,48.8799658],[2.4442361999999997,48.89232690000001],[2.4739899999999997,48.885267999999996],[2.4745124,48.8774717],[2.4940393999999997,48.8817999],[2.4899644,48.9075763],[2.5178537999999997,48.908119299999996],[2.5494463,48.9049537],[2.5545448,48.9290376],[2.4823124,48.9301335],[2.4182704,48.928464500000004],[2.4177651,48.9173245],[2.380592,48.91316],[2.3871195,48.8966206],[2.4024525999999997,48.891772599999996],[2.4024525999999997,48.891772599999996],[2.3927986999999997,48.8884932],[2.3854424,48.8833178],[2.3847388,48.873838899999996],[2.3824913999999997,48.867091699999996],[2.3747719,48.865465699999994],[2.3677041,48.8690084],[2.3623819999999998,48.8676038],[2.3538961,48.8691515],[2.3470264999999997,48.8673291],[2.3477192,48.870959],[2.3442183,48.876175499999995],[2.3404875,48.8721676],[2.3350722,48.8713262],[2.3300164,48.8742961],[2.3282501,48.875467],[2.3252029999999997,48.875265399999996],[2.3260259,48.8764331],[2.3283694,48.88356],[2.3252141,48.8875232],[2.3376986,48.882639399999995],[2.3469108999999997,48.883896799999995],[2.3540468999999997,48.8798985],[2.3563706,48.8763047],[2.3600567999999997,48.8766598],[2.370597,48.8821988],[2.3752648,48.8898408],[2.360308,48.8906127],[2.3465728,48.8959431],[2.3446236,48.8972744],[2.3320515,48.9061312],[2.3205215999999997,48.9042804],[2.2956673,48.8911717],[2.2921316,48.8854195],[2.2959568999999997,48.8756492],[2.2990078,48.872882499999996],[2.3040100999999997,48.8714942],[2.3269851,48.8695593],[2.3336622,48.8634578],[2.3338207,48.8622036],[2.3347579,48.8624513],[2.3457719999999997,48.8619093],[2.3482188,48.8610121],[2.3461339999999997,48.859353999999996],[2.351487,48.8579329],[2.3437854,48.851431999999996],[2.3410048,48.8471099],[2.3247331,48.8445017],[2.3224539,48.8415782],[2.3318129,48.833182099999995],[2.3276848,48.8283989],[2.2956006,48.8374673],[2.3050143,48.8431566],[2.2979068,48.848841099999994],[2.2850544999999998,48.8469092],[2.2779019,48.857476899999995],[2.2814247,48.8678339],[2.2847101,48.8776819],[2.2720499999999997,48.8815518],[2.2391872,48.8817083],[2.2271623,48.8703952],[2.1945136,48.885269799999996],[2.1811136,48.8739935],[2.0889761,48.8975469],[2.1151723,48.9053105],[2.1452076,48.9290445],[2.1705969,48.9377941],[2.2063931,48.9484388],[2.1927921,48.9958032],[2.2196619,48.9926386],[2.2206614,49.0158209],[2.2896822,48.9909944],[2.3067276,48.9705803],[2.2900559,48.9634202],[2.2559289,48.9639262],[2.2521035,48.9447172],[2.2544989,48.923218999999996],[2.2346225,48.9107491],[2.2258793999999997,48.9012806],[2.2371064,48.891369399999995],[2.2486384,48.8960781],[2.2851611,48.9066684],[2.2826876,48.931832299999996],[2.3049048,48.9386272],[2.363016,48.921459999999996],[2.3565353000000004,48.9384211],[2.4008659,48.961757],[2.3658764,48.975684900000005],[2.3768157999999997,48.9879105],[2.392539,49.000447],[2.351185,49.0079882],[2.33909,49.042649],[2.2490680999999997,49.125079799999995],[2.2535857,49.152859299999996],[2.4415988,49.1459525],[2.4670915,49.233265],[2.4976575,49.2876625],[2.605211,49.3188297],[2.60369,49.208467],[2.7402230999999997,49.0967498],[2.6861422,49.0396798],[2.5539554,49.0882098],[2.5510165,49.0720684],[2.465977,49.0206836],[2.4322702,48.9912192],[2.4755208,48.9577371],[2.476239,48.956717999999995],[2.4972339,48.9773565],[2.5229757,48.990651],[2.5232045999999997,48.9913538],[2.5418819,49.0143705],[2.5449745999999998,49.0149186],[2.5646503,49.0042098],[2.564383,49.0032395],[2.5740813,49.0034229],[2.6132800000000005,48.97519],[2.6255865,48.9464646],[2.6615053000000004,48.9460209],[2.8623469,48.9566069],[2.8839742,48.9569648],[2.880116,48.9416079],[2.8726378,48.8706484],[2.8148363,48.896944600000005],[2.7836132,48.854976199999996],[2.7813404999999998,48.8557047],[2.7789951999999998,48.8548924],[2.7099136,48.8305401],[2.6598134,48.838369400000005],[2.6826296999999997,48.8704085],[2.6026682,48.8765054],[2.5775004,48.8490565],[2.6170863,48.823281],[2.5617796,48.834911],[2.5463977,48.8398937],[2.5350492,48.8052675],[2.5525938,48.7945901],[2.5845626,48.7786742],[2.6071463,48.7769946],[2.6393177999999997,48.7884779],[2.7385154,48.7343335],[3.0881913,48.803729],[3.112041,48.944849999999995],[3.3832164,49.0371029],[3.3135559,49.3703791],[3.0993203,49.2396365],[2.8977391,49.230427399999996],[2.789325,49.3900314],[2.7837258,49.4097053],[2.8496737999999997,49.437697],[2.980527,49.5697148],[3.0686995,49.7322291],[3.2615644,49.6435264],[3.3482691,49.662512199999995],[3.6469567,49.5903341],[3.6137819,49.5495724],[3.6825005999999996,49.464188400000005],[3.7004007,49.3077813],[3.9771429,49.25364],[4.0038067,49.277425199999996],[4.0299309,49.2857778],[4.0601992,49.265483100000004],[4.0820945,49.2415968],[4.0303751,49.254269199999996],[4.012544,49.240291],[4.021123,49.22065],[4.0503632,49.2156625],[3.9561941999999997,49.054360900000006],[3.9453535,49.0249969],[4.3165811,48.9603521],[4.3570588,48.9792902],[4.3858971,48.944063],[4.228866,48.7300118],[4.5880957,48.7291339],[4.7016918,48.2373372],[5.140066,48.1083997],[5.3317948,47.8444084],[5.1114976,47.5269706],[5.1978729999999995,47.3469787],[5.1151626,47.3040446],[5.0927174,47.3130154],[5.0636472,47.3152244],[5.0659659,47.339065999999995],[5.0516312999999995,47.3572521],[5.0486712,47.359901199999996],[5.0340343,47.336711099999995],[5.0370533,47.3223309],[5.0162379999999995,47.279765999999995],[4.8564992,47.0007636],[4.8663901,46.7878643],[4.8587671,46.7746494],[4.9026348,46.574034],[5.206275,46.6466282],[5.5488912,46.668756099999996],[5.9172035,46.750384],[6.3339346,46.9103339],[6.6152506,47.0568946],[6.0616263,47.263411],[5.9928023,47.2763078],[5.9460394,47.2187228],[5.8260792,47.1864329],[5.47523,47.0819063],[5.5082005999999994,47.111086199999995],[5.6011801,47.4353295],[6.1699673,47.6280745],[6.510287,47.672916],[6.8368388,47.686340099999995],[6.9125998,47.6422286],[6.8595676,47.627265799999996],[6.8587881,47.5994434],[6.7799431,47.590953],[6.8132323,47.5030316],[6.843118199999999,47.4872216],[7.0020727,47.510413],[7.2233367,47.6284935],[7.4436252,47.6651785],[7.4163112,47.7432678],[7.3909311,47.7746521],[7.345904300000001,47.752866999999995],[7.339178800000001,47.748310599999996],[7.317715300000001,47.7334387],[7.2944902,47.758207],[7.3164083,47.7891825],[7.3129532,47.8075785],[7.1721627,47.7940342],[7.0832071,47.8211721],[7.2230046,47.9017312],[7.366046,48.071002],[7.4057614,48.0742433],[7.3645047,48.1285319],[7.4371467,48.2502037],[7.493407,48.4594045],[7.4977859,48.5248964],[7.6596113,48.4290383],[7.6935915,48.5222052],[7.752387,48.561569600000006],[7.7607402,48.5734997],[7.7678429,48.5771051],[7.7471474,48.583016799999996],[7.742570199999999,48.586266599999995],[7.701756400000001,48.5870585],[7.6717014,48.5912488],[7.7053166,48.6047011],[7.7577371,48.603181],[7.7650095,48.6312046],[7.6929749,48.7462998],[7.8348574,48.8002763],[7.7579251,48.8277945],[7.6485741,48.9018127],[7.3742915,48.702543],[7.242516,48.7717233],[7.0780791,48.7387767],[6.5167271,48.5787194],[6.9382445,48.2922411],[6.9610966,48.2776108],[6.6139306,48.016439],[6.4759564,48.1972593],[6.4188573,48.191429799999995],[6.4010606,48.2533701],[5.8817288,48.187685],[5.7068373,48.3703731],[5.1566645,48.4471012],[4.964540500000001,48.626344499999995],[4.959308699999999,48.6488575],[5.163556,48.775868],[5.598313,48.7537416],[5.8897802,48.6699852],[6.0926045,48.6152582],[6.176442,48.6191785],[6.184054799999999,48.652259799999996],[6.1654387999999996,48.66639430000001],[6.1831875,48.6900236],[6.1989011,48.6791264],[6.224524,48.7012274],[6.2421676,48.711759099999995],[6.172641,48.710083],[6.1273725,48.694133],[6.1477636,48.7447995],[6.0641486,48.9010502],[7.0408369,49.0925378],[6.7184481,49.1087929],[6.6964476,49.1096958],[6.4957862,49.1788833],[6.22516,49.108186],[6.1444198,49.0668118],[6.1096372,49.081659],[6.1030821,49.0820354],[6.1592424,49.1127927],[6.1735693,49.1147716],[6.1750152,49.1186217],[6.1990882,49.134143],[6.1607987,49.1487867],[6.1469329,49.1919995],[5.8427068,49.1650912],[5.9464252,49.254878],[6.1358791,49.2459092],[6.1753056,49.263152],[6.1213619,49.3052782],[6.1784493,49.3491864],[6.1700177,49.380053],[6.141121399999999,49.354748099999995],[6.1378207,49.3581006],[6.1076282,49.361682800000004],[5.9553162,49.4764632],[5.7537641,49.5180437],[4.927446499999999,49.699160899999995],[4.7525724,49.733263699999995],[4.7079118,49.737808199999996],[4.688611,49.3893684],[4.3700037,49.521483],[4.0917953,49.911571],[4.0336132,50.0269359],[3.6430887999999997,49.904176199999995],[3.2898997999999997,49.8398669],[3.2693727999999997,49.8489888],[3.2914339999999997,49.863715],[3.2331843,50.168874699999996],[3.2512122,50.1842252],[3.4247663,50.1289665],[3.562359,50.1026911],[3.6314759,50.2604665],[3.5530323999999998,50.3442176],[3.5125678,50.332683],[3.5156712,50.341229899999995],[3.5232024,50.364969699999996],[3.4769735,50.3808495],[3.3873355,50.325504],[3.2853551,50.346836],[3.0962856,50.3415715],[2.9269290999999997,50.333904999999994],[2.799683,50.268047],[2.7385637999999997,50.3006728],[2.7377525,50.2828465],[2.3437521,50.1605255],[2.0675604,50.0298326],[1.8572631,50.1015205],[1.6375942,50.1735378],[1.6608066,50.2755521],[2.0365956,50.3638278],[2.3501837,50.3893582],[2.4761465,50.5116423],[2.4618913,50.5686249],[2.5760939,50.494987],[2.6218682,50.5159965],[2.6781204,50.4740785],[2.7786339,50.4229058],[2.8211638,50.4318793],[2.8271322,50.4630317],[2.7944194,50.5214147],[2.825561,50.5480964],[2.9656468,50.47922],[2.9445383,50.444114],[2.9769731,50.415778499999995],[2.9754110000000003,50.405243],[3.0474859,50.3994311],[3.0900035,50.380331],[3.1107497,50.3923887],[3.2350962,50.4757718],[3.3687418,50.625111999999994],[3.2240561999999997,50.6784861],[3.2060624,50.6932377],[3.2369325,50.7445332],[3.126123,50.7712749],[3.1467623,50.7410975],[3.1329639,50.725817799999994],[3.1280803,50.6819165],[3.1536131,50.6695836],[3.1450989,50.640491399999995],[3.126617,50.6166574],[3.106893,50.6079096],[3.0886415,50.5848251],[3.0490039,50.5489492],[3.0508095,50.5967542],[3.0345444,50.6186928],[3.0621357,50.6327062],[3.0628577,50.6368887],[3.0704902,50.635784199999996],[3.0765914,50.6652634],[3.0485985,50.6560584],[2.9842862,50.650769],[2.9575485,50.6076901],[2.8702608,50.6921432],[2.7194063,50.6347228],[2.7413019999999997,50.723344],[2.5466777,50.739237],[2.4117373,50.6366105],[2.2596216,50.7401947],[2.220574,50.7593035],[2.4347713,50.9561919],[2.3930165999999997,51.0328537],[2.3706255,51.0335539],[2.3123147,51.0229895],[2.1131233,50.9894871],[2.0712137,50.8708525],[1.8900805999999999,50.9527523],[1.8613269999999997,50.937003999999995],[1.834834,50.9524354],[1.8096731000000001,50.9367325],[1.7088478999999999,50.8230333],[1.6706341,50.7333045],[1.6446471,50.726968199999995],[1.630559,50.5095971],[1.59485,50.403725]]}}]}